NORAD_CAT_ID,OBJECT_NAME,OBJECT_TYPE,EPOCH,MEAN_MOTION,ECCENTRICITY,INCLINATION,RA_OF_ASC_NODE,ARG_OF_PERICENTER,MEAN_ANOMALY,BSTAR,MEAN_MOTION_DOT,MEAN_MOTION_DDOT,TLE_LINE0,TLE_LINE1,TLE_LINE2,SEMIMAJOR_AXIS,PERIOD,APOGEE,PERIGEE,DECAYED
55288.0,STARLINK-5311,PAYLOAD,2023-10-03 14:37:29,14.98331052,0.0003098,69.9984,103.6112,268.6983,91.3821,-1.8126e-05,-3.09e-06,0.0,0 STARLINK-5311,1 55288U 23010V   23276.60936881 -.00000309  00000-0 -18126-4 0  9991,2 55288  69.9984 103.6112 0003098 268.6983  91.3821 14.98331052 40241,6950.19,96.107,574.208,569.901,0.0
55288.0,STARLINK-5311,PAYLOAD,2023-10-03 21:02:01,14.98332723,0.0003113,69.9984,102.9379,268.9608,91.1195,-1.3986e-05,-2.6e-06,0.0,0 STARLINK-5311,1 55288U 23010V   23276.87640734 -.00000260  00000-0 -13986-4 0  9994,2 55288  69.9984 102.9379 0003113 268.9608  91.1195 14.98332723 40285,6950.184,96.107,574.213,569.886,0.0
55288.0,STARLINK-5311,PAYLOAD,2023-10-04 13:03:22,14.98330081,0.0003086,69.9986,101.2547,269.6285,90.452,2.695e-05,2.29e-06,0.0,0 STARLINK-5311,1 55288U 23010V   23277.54400705  .00000229  00000-0  26950-4 0  9999,2 55288  69.9986 101.2547 0003086 269.6285  90.4520 14.98330081 40384,6950.193,96.107,574.202,569.913,0.0
55288.0,STARLINK-5311,PAYLOAD,2023-10-04 19:27:54,14.9833223,0.000311,69.9986,100.5816,269.9777,90.1026,3.2654e-05,2.97e-06,0.0,0 STARLINK-5311,1 55288U 23010V   23277.81104532  .00000297  00000-0  32654-4 0  9991,2 55288  69.9986 100.5816 0003110 269.9777  90.1026 14.98332230 40119,6950.186,96.107,574.213,569.889,0.0
55288.0,STARLINK-5311,PAYLOAD,2023-10-04 21:04:02,14.98332231,0.000311,69.9986,100.4133,270.0666,90.0137,3.2174e-05,2.91e-06,0.0,0 STARLINK-5311,1 55288U 23010V   23277.87780524  .00000291  00000-0  32174-4 0  9999,2 55288  69.9986 100.4133 0003110 270.0666  90.0137 14.98332231 40438,6950.186,96.107,574.212,569.889,0.0
55288.0,STARLINK-5311,PAYLOAD,2023-10-05 13:05:23,14.98330043,0.000303,69.9989,98.73,270.8732,89.208,-8.5309e-06,-1.95e-06,0.0,0 STARLINK-5311,1 55288U 23010V   23278.54540751 -.00000195  00000-0 -85309-5 0  9994,2 55288  69.9989  98.7300 0003030 270.8732  89.2080 14.98330043 40536,6950.193,96.107,574.164,569.952,0.0
55288.0,STARLINK-5311,PAYLOAD,2023-10-05 21:06:03,14.98330451,0.0003019,69.9989,97.8884,270.5487,89.5326,2.2868e-06,-6.6e-07,0.0,0 STARLINK-5311,1 55288U 23010V   23278.87920673 -.00000066  00000-0  22868-5 0  9992,2 55288  69.9989  97.8884 0003019 270.5487  89.5326 14.98330451 40274,6950.191,96.107,574.155,569.958,0.0
55288.0,STARLINK-5311,PAYLOAD,2023-10-06 13:07:24,14.983279,0.0002996,69.999,96.2051,270.6362,89.4454,-4.7139e-05,-6.55e-06,0.0,0 STARLINK-5311,1 55288U 23010V   23279.54680991 -.00000655  00000-0 -47139-4 0  9995,2 55288  69.9990  96.2051 0002996 270.6362  89.4454 14.98327900 40682,6950.199,96.107,574.147,569.982,0.0
55288.0,STARLINK-5311,PAYLOAD,2023-10-06 21:08:04,14.98328576,0.0002995,69.999,95.3636,269.4869,90.5947,-3.523e-05,-5.13e-06,0.0,0 STARLINK-5311,1 55288U 23010V   23279.88060941 -.00000513  00000-0 -35230-4 0  9991,2 55288  69.9990  95.3636 0002995 269.4869  90.5947 14.98328576 40734,6950.197,96.107,574.144,569.981,0.0
55288.0,STARLINK-5311,PAYLOAD,2023-10-06 22:44:12,14.98329147,0.0002994,69.999,95.1952,269.4552,90.6264,-2.8322e-05,-4.31e-06,0.0,0 STARLINK-5311,1 55288U 23010V   23279.94736891 -.00000431  00000-0 -28322-4 0  9995,2 55288  69.9990  95.1952 0002994 269.4552  90.6264 14.98329147 40436,6950.196,96.107,574.141,569.98,0.0
55288.0,STARLINK-5311,PAYLOAD,2023-10-07 13:09:24,14.98331173,0.0003009,69.9989,93.68,269.0335,91.048,3.3952e-05,3.12e-06,0.0,0 STARLINK-5311,1 55288U 23010V   23280.54820588  .00000312  00000-0  33952-4 0  9991,2 55288  69.9989  93.6800 0003009 269.0335  91.0480 14.98331173 40833,6950.189,96.107,574.146,569.963,0.0
55288.0,STARLINK-5311,PAYLOAD,2023-10-07 21:10:05,14.98333032,0.0003015,69.9991,92.8383,269.0325,91.0488,4.2658e-05,4.16e-06,0.0,0 STARLINK-5311,1 55288U 23010V   23280.88200404  .00000416  00000-0  42658-4 0  9995,2 55288  69.9991  92.8383 0003015 269.0325  91.0488 14.98333032 40888,6950.184,96.107,574.144,569.953,0.0
55288.0,STARLINK-5311,PAYLOAD,2023-10-08 05:10:45,14.98329186,0.0003074,69.9989,91.9959,269.2073,90.8733,3.0675e-05,2.73e-06,0.0,0 STARLINK-5311,1 55288U 23010V   23281.21580618  .00000273  00000-0  30675-4 0  9998,2 55288  69.9989  91.9959 0003074 269.2073  90.8733 14.98329186 40628,6950.195,96.107,574.197,569.924,0.0
55288.0,STARLINK-5311,PAYLOAD,2023-10-08 13:11:26,14.98329104,0.0003068,69.9989,91.1543,269.2669,90.8138,2.1999e-05,1.69e-06,0.0,0 STARLINK-5311,1 55288U 23010V   23281.54960668  .00000169  00000-0  21999-4 0  9994,2 55288  69.9989  91.1543 0003068 269.2669  90.8138 14.98329104 40981,6950.196,96.107,574.193,569.928,0.0
55288.0,STARLINK-5311,PAYLOAD,2023-10-08 21:12:06,14.98331125,0.0003048,69.9991,90.3134,270.5892,89.4917,4.2366e-05,4.13e-06,0.0,0 STARLINK-5311,1 55288U 23010V   23281.88340488  .00000413  00000-0  42366-4 0  9996,2 55288  69.9991  90.3134 0003048 270.5892  89.4917 14.98331125 41034,6950.189,96.107,574.173,569.936,0.0
55288.0,STARLINK-5311,PAYLOAD,2023-10-09 05:12:46,14.98329349,0.0002986,69.9994,89.4714,271.5739,88.5078,1.0743e-06,-8e-07,0.0,0 STARLINK-5311,1 55288U 23010V   23282.21720716 -.00000080  00000-0  10743-5 0  9996,2 55288  69.9994  89.4714 0002986 271.5739  88.5078 14.98329349 40774,6950.195,96.107,574.135,569.985,0.0
55288.0,STARLINK-5311,PAYLOAD,2023-10-09 13:13:27,14.98330733,0.0002948,69.9995,88.6296,270.9439,89.1382,-4.016e-05,-5.72e-06,0.0,0 STARLINK-5311,1 55288U 23010V   23282.55100737 -.00000572  00000-0 -40160-4 0  9990,2 55288  69.9995  88.6296 0002948 270.9439  89.1382 14.98330733 41134,6950.191,96.107,574.105,570.007,0.0
55288.0,STARLINK-5311,PAYLOAD,2023-10-09 21:14:07,14.98333241,0.0002954,69.9995,87.7881,271.4053,88.6768,-3.8678e-06,-1.39e-06,0.0,0 STARLINK-5311,1 55288U 23010V   23282.88480436 -.00000139  00000-0 -38678-5 0  9994,2 55288  69.9995  87.7881 0002954 271.4053  88.6768 14.98333241 41183,6950.183,96.107,574.101,569.995,0.0
55288.0,STARLINK-5311,PAYLOAD,2023-10-10 13:15:27,14.98332759,0.0002946,69.9994,86.1048,271.4321,88.65,1.9953e-05,1.45e-06,0.0,0 STARLINK-5311,1 55288U 23010V   23283.55240273  .00000145  00000-0  19953-4 0  9991,2 55288  69.9994  86.1048 0002946 271.4321  88.6500 14.98332759 40972,6950.184,96.107,574.097,570.002,0.0
55288.0,STARLINK-5311,PAYLOAD,2023-10-10 21:16:07,14.98335784,0.0002949,69.9996,85.2633,271.5347,88.5474,5.0258e-05,5.07e-06,0.0,0 STARLINK-5311,1 55288U 23010V   23283.88619907  .00000507  00000-0  50258-4 0  9996,2 55288  69.9996  85.2633 0002949 271.5347  88.5474 14.98335784 41337,6950.175,96.107,574.09,569.99,0.0
55288.0,STARLINK-5311,PAYLOAD,2023-10-11 13:17:28,14.98328718,0.0002867,69.9999,83.5802,271.7963,88.2867,-2.3366e-05,-3.72e-06,0.0,0 STARLINK-5311,1 55288U 23010V   23284.55380512 -.00000372  00000-0 -23366-4 0  9990,2 55288  69.9999  83.5802 0002867 271.7963  88.2867 14.98328718 41123,6950.197,96.107,574.054,570.069,0.0
55288.0,STARLINK-5311,PAYLOAD,2023-10-12 13:19:29,14.98332271,0.0002854,70.0002,81.0556,270.1644,89.9188,-3.0749e-05,-4.6e-06,0.0,0 STARLINK-5311,1 55288U 23010V   23285.55520231 -.00000460  00000-0 -30749-4 0  9996,2 55288  70.0002  81.0556 0002854 270.1644  89.9188 14.98332271 41588,6950.186,96.107,574.034,570.067,0.0
55288.0,STARLINK-5311,PAYLOAD,2023-10-12 19:44:01,14.98332729,0.0002861,70.0004,80.3824,270.0428,90.0403,-2.2446e-05,-3.61e-06,0.0,0 STARLINK-5311,1 55288U 23010V   23285.82224129 -.00000361  00000-0 -22446-4 0  9998,2 55288  70.0004  80.3824 0002861 270.0428  90.0403 14.98332729 41319,6950.184,96.107,574.038,570.061,0.0
55288.0,STARLINK-5311,PAYLOAD,2023-10-13 14:57:38,14.98327582,0.0002876,70.0005,78.3624,270.0284,90.0545,7.1821e-06,-7e-08,0.0,0 STARLINK-5311,1 55288U 23010V   23286.62336323 -.00000007  00000-0  71821-5 0  9995,2 55288  70.0005  78.3624 0002876 270.0284  90.0545 14.98327582 41746,6950.2,96.107,574.064,570.066,0.0
55288.0,STARLINK-5311,PAYLOAD,2023-10-13 19:46:02,14.98331128,0.0002874,70.0005,77.8574,268.991,91.092,3.3667e-05,3.09e-06,0.0,0 STARLINK-5311,1 55288U 23010V   23286.82364002  .00000309  00000-0  33667-4 0  9991,2 55288  70.0005  77.8574 0002874 268.9910  91.0920 14.98331128 41462,6950.189,96.107,574.052,570.057,0.0
55288.0,STARLINK-5311,PAYLOAD,2023-10-14 10:11:15,14.98323443,0.0002532,70.0008,76.3424,277.0132,83.0739,-6.2109e-05,-8.34e-06,0.0,0 STARLINK-5311,1 55288U 23010V   23287.42449019 -.00000834  00000-0 -62109-4 0  9998,2 55288  70.0008  76.3424 0002532 277.0132  83.0739 14.98323443 41551,6950.213,96.107,573.838,570.318,0.0
55288.0,STARLINK-5311,PAYLOAD,2023-10-14 13:23:32,14.9831878,0.0002702,70.001,76.0043,274.8655,85.2195,-0.00013044,-1.648e-05,0.0,0 STARLINK-5311,1 55288U 23010V   23287.55801510 -.00001648  00000-0 -13044-3 0  9997,2 55288  70.0010  76.0043 0002702 274.8655  85.2195 14.98318780 41886,6950.228,96.108,573.971,570.215,0.0
55288.0,STARLINK-5311,PAYLOAD,2023-10-14 19:48:05,14.98314748,0.0003037,70.0004,75.3326,271.0267,89.0544,-0.00014929,-1.873e-05,0.0,0 STARLINK-5311,1 55288U 23010V   23287.82505996 -.00001873  00000-0 -14929-3 0  9999,2 55288  70.0004  75.3326 0003037 271.0267  89.0544 14.98314748 41616,6950.24,96.108,574.216,569.994,0.0
55288.0,STARLINK-5311,PAYLOAD,2023-10-15 11:49:25,14.98322678,0.0003209,69.9999,73.65,269.8541,90.2251,-2.0163e-05,-3.34e-06,0.0,0 STARLINK-5311,1 55288U 23010V   23288.49265512 -.00000334  00000-0 -20163-4 0  9999,2 55288  69.9999  73.6500 0003209 269.8541  90.2251 14.98322678 41713,6950.216,96.107,574.311,569.85,0.0
55288.0,STARLINK-5311,PAYLOAD,2023-10-15 13:25:33,14.98322207,0.000321,70.0002,73.4819,270.1611,89.918,-1.4707e-05,-2.68e-06,0.0,0 STARLINK-5311,1 55288U 23010V   23288.55941565 -.00000268  00000-0 -14707-4 0  9998,2 55288  70.0002  73.4819 0003210 270.1611  89.9180 14.98322207 42037,6950.217,96.107,574.313,569.851,0.0
